NORAD_CAT_ID,OBJECT_NAME,OBJECT_TYPE,EPOCH,MEAN_MOTION,ECCENTRICITY,INCLINATION,RA_OF_ASC_NODE,ARG_OF_PERICENTER,MEAN_ANOMALY,BSTAR,MEAN_MOTION_DOT,MEAN_MOTION_DDOT,TLE_LINE0,TLE_LINE1,TLE_LINE2,SEMIMAJOR_AXIS,PERIOD,APOGEE,PERIGEE,DECAYED
56792.0,STARLINK-6046,PAYLOAD,2024-07-08 19:40:31,14.98325615,0.0002907,70.0,79.7866,272.0805,88.0021,6.0534e-05,6.29e-06,0.0,0 STARLINK-6046,1 56792U 23078AB  24190.81981318  .00000629  00000-0  60534-4 0  9993,2 56792  70.0000  79.7866 0002907 272.0805  88.0021 14.98325615 61733,6950.206,96.107,574.092,570.051,0.0
56792.0,STARLINK-6046,PAYLOAD,2024-07-08 22:52:47,14.98328139,0.0002744,70.0001,79.4503,267.82,92.2645,2.7633e-05,2.37e-06,0.0,0 STARLINK-6046,1 56792U 23078AB  24190.95333265  .00000237  00000-0  27633-4 0  9998,2 56792  70.0001  79.4503 0002744 267.8200  92.2645 14.98328139 61495,6950.199,96.107,573.971,570.157,0.0
56792.0,STARLINK-6046,PAYLOAD,2024-07-09 10:05:44,14.98329385,0.0002958,69.9998,78.2709,269.1426,90.9394,-1.1917e-05,-2.35e-06,0.0,0 STARLINK-6046,1 56792U 23078AB  24191.42065231 -.00000235  00000-0 -11917-4 0  9994,2 56792  69.9998  78.2709 0002958 269.1426  90.9394 14.98329385 61562,6950.195,96.107,574.116,570.004,0.0
56792.0,STARLINK-6046,PAYLOAD,2024-07-09 19:42:32,14.98329689,0.0002995,69.9997,77.2618,269.3066,90.775,-2.0808e-05,-3.41e-06,0.0,0 STARLINK-6046,1 56792U 23078AB  24191.82121272 -.00000341  00000-0 -20808-4 0  9993,2 56792  69.9997  77.2618 0002995 269.3066  90.7750 14.98329689 61888,6950.194,96.107,574.14,569.977,0.0
56792.0,STARLINK-6046,PAYLOAD,2024-07-09 21:18:40,14.98328082,0.0003,69.9997,77.0929,268.8383,91.2432,-8.5868e-06,-1.95e-06,0.0,0 STARLINK-6046,1 56792U 23078AB  24191.88797335 -.00000195  00000-0 -85868-5 0  9993,2 56792  69.9997  77.0929 0003000 268.8383  91.2432 14.98328082 61637,6950.199,96.107,574.149,569.979,0.0
56792.0,STARLINK-6046,PAYLOAD,2024-07-10 10:07:45,14.98332973,0.0002985,69.9998,75.7467,270.7203,89.3614,-5.428e-05,-7.41e-06,0.0,0 STARLINK-6046,1 56792U 23078AB  24192.42205107 -.00000741  00000-0 -54280-4 0  9995,2 56792  69.9998  75.7467 0002985 270.7203  89.3614 14.98332973 61717,6950.184,96.107,574.123,569.974,0.0
56792.0,STARLINK-6046,PAYLOAD,2024-07-10 21:20:41,14.98328068,0.000305,69.9997,74.5684,270.788,89.293,7.3738e-05,7.87e-06,0.0,0 STARLINK-6046,1 56792U 23078AB  24192.88937134  .00000787  00000-0  73738-4 0  9994,2 56792  69.9997  74.5684 0003050 270.7880  89.2930 14.98328068 61786,6950.199,96.107,574.184,569.944,0.0
56792.0,STARLINK-6046,PAYLOAD,2024-07-11 02:09:05,14.98333659,0.0003065,69.9998,74.0634,270.7636,89.3172,7.8352e-05,8.42e-06,0.0,0 STARLINK-6046,1 56792U 23078AB  24193.08964747  .00000842  00000-0  78352-4 0  9996,2 56792  69.9998  74.0634 0003065 270.7636  89.3172 14.98333659 62076,6950.182,96.107,574.177,569.916,0.0
56792.0,STARLINK-6046,PAYLOAD,2024-07-12 02:11:05,14.98339358,0.0003052,69.9997,71.5384,270.6778,89.4031,0.00012342,1.38e-05,0.0,0 STARLINK-6046,1 56792U 23078AB  24194.09104091  .00001380  00000-0  12342-3 0  9990,2 56792  69.9997  71.5384 0003052 270.6778  89.4031 14.98339358 62225,6950.164,96.106,574.15,569.908,0.0
56792.0,STARLINK-6046,PAYLOAD,2024-07-12 08:35:38,14.98334292,0.0002704,70.001,70.8627,278.6755,81.4097,5.1718e-05,5.24e-06,0.0,0 STARLINK-6046,1 56792U 23078AB  24194.35808664  .00000524  00000-0  51718-4 0  9996,2 56792  70.0010  70.8627 0002704 278.6755  81.4097 14.98334292 62262,6950.18,96.107,573.924,570.165,0.0
56792.0,STARLINK-6046,PAYLOAD,2024-07-12 21:24:43,14.98330026,0.0002799,70.0004,69.5175,273.1296,86.9543,-1.9245e-05,-3.23e-06,0.0,0 STARLINK-6046,1 56792U 23078AB  24194.89217019 -.00000323  00000-0 -19245-4 0  9991,2 56792  70.0004  69.5175 0002799 273.1296  86.9543 14.98330026 62089,6950.193,96.107,574.003,570.112,0.0
56792.0,STARLINK-6046,PAYLOAD,2024-07-13 08:37:39,14.98332136,0.0002712,70.0008,68.34,271.4276,88.6573,-1.9873e-05,-3.3e-06,0.0,0 STARLINK-6046,1 56792U 23078AB  24195.35948800 -.00000330  00000-0 -19873-4 0  9997,2 56792  70.0008  68.3400 0002712 271.4276  88.6573 14.98332136 62418,6950.186,96.107,573.936,570.166,0.0
56792.0,STARLINK-6046,PAYLOAD,2024-07-13 19:50:36,14.98303402,0.0002831,70.0,67.1617,266.6844,93.3991,0.00043193,5.061e-05,0.0,0 STARLINK-6046,1 56792U 23078AB  24195.82681224  .00005061  00000-0  43193-3 0  9998,2 56792  70.0000  67.1617 0002831 266.6844  93.3991 14.98303402 62484,6950.275,96.109,574.108,570.173,0.0
56792.0,STARLINK-6046,PAYLOAD,2024-07-13 21:26:44,14.98332185,0.0002825,70.0003,66.9942,265.3388,94.7449,-3.698e-05,-5.34e-06,0.0,0 STARLINK-6046,1 56792U 23078AB  24195.89356725 -.00000534  00000-0 -36980-4 0  9999,2 56792  70.0003  66.9942 0002825 265.3388  94.7449 14.98332185 62233,6950.186,96.107,574.015,570.088,0.0
56792.0,STARLINK-6046,PAYLOAD,2024-07-14 02:15:08,14.98322116,0.0002964,70.0004,66.4892,264.5832,95.4989,0.00019969,2.29e-05,0.0,0 STARLINK-6046,1 56792U 23078AB  24196.09384799  .00002290  00000-0  19969-3 0  9990,2 56792  70.0004  66.4892 0002964 264.5832  95.4989 14.98322116 62524,6950.217,96.108,574.142,570.022,0.0
56792.0,STARLINK-6046,PAYLOAD,2024-07-14 08:39:41,14.98295534,0.0002987,70.0008,65.815,263.7842,96.2976,0.00061048,7.192e-05,0.0,0 STARLINK-6046,1 56792U 23078AB  24196.36089690  .00007192  00000-0  61048-3 0  9993,2 56792  70.0008  65.8150 0002987 263.7842  96.2976 14.98295534 62567,6950.299,96.109,574.241,570.088,0.0
56792.0,STARLINK-6046,PAYLOAD,2024-07-14 21:28:44,14.98332024,0.0002977,70.0,64.4687,269.5854,90.4964,4.8154e-05,4.82e-06,0.0,0 STARLINK-6046,1 56792U 23078AB  24196.89496429  .00000482  00000-0  48154-4 0  9992,2 56792  70.0000  64.4687 0002977 269.5854  90.4964 14.98332024 62643,6950.187,96.107,574.121,569.983,0.0
56792.0,STARLINK-6046,PAYLOAD,2024-07-15 08:41:41,14.98328422,0.0002942,70.0001,63.2905,269.5506,90.5316,-2.7433e-08,-9.3e-07,0.0,0 STARLINK-6046,1 56792U 23078AB  24197.36228784 -.00000093  00000-0 -27433-7 0  9992,2 56792  70.0001  63.2905 0002942 269.5506  90.5316 14.98328422 62458,6950.198,96.107,574.108,570.018,0.0
56792.0,STARLINK-6046,PAYLOAD,2024-07-15 18:18:30,14.98326835,0.0002996,70.0,62.2804,269.305,90.7765,1.95e-05,1.4e-06,0.0,0 STARLINK-6046,1 56792U 23078AB  24197.76284880  .00000140  00000-0  19500-4 0  9999,2 56792  70.0000  62.2804 0002996 269.3050  90.7765 14.98326835 62776,6950.203,96.107,574.15,569.985,0.0
56792.0,STARLINK-6046,PAYLOAD,2024-07-15 21:30:46,14.98328354,0.0002951,70.0001,61.9426,263.6492,96.4331,4.4468e-05,4.38e-06,0.0,0 STARLINK-6046,1 56792U 23078AB  24197.89636651  .00000438  00000-0  44468-4 0  9991,2 56792  70.0001  61.9426 0002951 263.6492  96.4331 14.98328354 62535,6950.198,96.107,574.114,570.012,0.0
56792.0,STARLINK-6046,PAYLOAD,2024-07-16 00:43:02,14.98324679,0.0003029,70.0002,61.6061,268.1239,91.9573,9.7687e-05,1.073e-05,0.0,0 STARLINK-6046,1 56792U 23078AB  24198.02988813  .00001073  00000-0  97687-4 0  9994,2 56792  70.0002  61.6061 0003029 268.1239  91.9573 14.98324679 62550,6950.209,96.107,574.18,569.969,0.0
56792.0,STARLINK-6046,PAYLOAD,2024-07-16 21:32:46,14.98333831,0.0003029,70.0002,59.4176,266.436,93.6453,4.5265e-05,4.47e-06,0.0,0 STARLINK-6046,1 56792U 23078AB  24198.89776270  .00000447  00000-0  45265-4 0  9990,2 56792  70.0002  59.4176 0003029 266.4360  93.6453 14.98333831 62688,6950.181,96.107,574.151,569.941,0.0
56792.0,STARLINK-6046,PAYLOAD,2024-07-17 00:45:02,14.98337579,0.0003022,70.0002,59.081,266.5494,93.532,8.5766e-05,9.31e-06,0.0,0 STARLINK-6046,1 56792U 23078AB  24199.03127887  .00000931  00000-0  85766-4 0  9999,2 56792  70.0002  59.0810 0003022 266.5494  93.5320 14.98337579 62967,6950.169,96.107,574.135,569.934,0.0
56792.0,STARLINK-6046,PAYLOAD,2024-07-17 19:58:40,14.98327349,0.0002979,70.0004,57.062,270.2432,89.8386,4.6101e-05,4.57e-06,0.0,0 STARLINK-6046,1 56792U 23078AB  24199.83240750  .00000457  00000-0  46101-4 0  9995,2 56792  70.0004  57.0620 0002979 270.2432  89.8386 14.98327349 63088,6950.201,96.107,574.137,569.996,0.0
56792.0,STARLINK-6046,PAYLOAD,2024-07-17 21:34:48,14.98328497,0.0002914,70.0004,56.8937,268.1776,91.9049,4.4789e-05,4.41e-06,0.0,0 STARLINK-6046,1 56792U 23078AB  24199.89916684  .00000441  00000-0  44789-4 0  9990,2 56792  70.0004  56.8937 0002914 268.1776  91.9049 14.98328497 62839,6950.198,96.107,574.088,570.037,0.0
56792.0,STARLINK-6046,PAYLOAD,2024-07-18 07:11:36,14.98345027,0.0002938,70.0008,55.8835,273.0309,87.0514,-0.0002898,-3.55e-05,0.0,0 STARLINK-6046,1 56792U 23078AB  24200.29972305 -.00003550  00000-0 -28980-3 0  9999,2 56792  70.0008  55.8835 0002938 273.0309  87.0514 14.98345027 63159,6950.146,96.106,574.053,569.969,0.0
56792.0,STARLINK-6046,PAYLOAD,2024-07-18 20:00:40,14.98333852,0.0002936,70.0007,54.5371,267.5921,92.4902,-5.855e-05,-7.92e-06,0.0,0 STARLINK-6046,1 56792U 23078AB  24200.83380532 -.00000792  00000-0 -58550-4 0  9996,2 56792  70.0007  54.5371 0002936 267.5921  92.4902 14.98333852 63238,6950.181,96.107,574.087,570.005,0.0
56792.0,STARLINK-6046,PAYLOAD,2024-07-18 21:36:49,14.98329844,0.0002762,70.0007,54.3689,266.571,93.5133,-9.9363e-06,-2.12e-06,0.0,0 STARLINK-6046,1 56792U 23078AB  24200.90056742 -.00000212  00000-0 -99363-5 0  9992,2 56792  70.0007  54.3689 0002762 266.5710  93.5133 14.98329844 62985,6950.193,96.107,573.978,570.139,0.0
56792.0,STARLINK-6046,PAYLOAD,2024-07-19 07:13:37,14.98333163,0.0002898,70.0005,53.3589,266.499,93.5838,-1.7741e-05,-3.05e-06,0.0,0 STARLINK-6046,1 56792U 23078AB  24201.30112504 -.00000305  00000-0 -17741-4 0  9998,2 56792  70.0005  53.3589 0002898 266.4990  93.5838 14.98333163 63049,6950.183,96.107,574.062,570.034,0.0
56792.0,STARLINK-6046,PAYLOAD,2024-07-19 20:02:41,14.98330921,0.0002945,70.0003,52.0124,267.1964,92.8858,3.4462e-05,3.18e-06,0.0,0 STARLINK-6046,1 56792U 23078AB  24201.83520469  .00000318  00000-0  34462-4 0  9990,2 56792  70.0003  52.0124 0002945 267.1964  92.8858 14.98330921 63380,6950.19,96.107,574.102,570.008,0.0
